ASTROCAST-0402          
1 55109U 23001DE  26068.80661100  .00010930  00000+0  41835-3 0  9996
2 55109  97.5556 160.6821 0004209 216.6984 143.3966 15.26734153129364
STARLINK-31244          
1 58856U 24019D   26068.56188810 -.00002174  00000+0 -69451-4 0  9991
2 58856  43.0044 249.5832 0002101 278.4832  81.5781 15.27599347119069
